*******************************************************************************
Ephemeris / PORT_LOGIN Tue Oct  6 15:50:47 2015 Pasadena, USA    / Horizons    
*******************************************************************************
Target body name: Mercury (199)                   {source: DE-0431LE-0431}
Center body name: Earth (399)                     {source: DE-0431LE-0431}
Center-site name: BODY CENTER
*******************************************************************************
Start time      : A.D. 1900-Jan-01 00:00:00.0000 CT 
Stop  time      : A.D. 2099-Dec-31 00:00:00.0000 CT 
Step-size       : 14400 minutes
*******************************************************************************
Center geodetic : 0.00000000,0.00000000,0.0000000 {E-lon(deg),Lat(deg),Alt(km)}
Center cylindric: 0.00000000,0.00000000,0.0000000 {E-lon(deg),Dxy(km),Dz(km)}
Center radii    : 6378.1 x 6378.1 x 6356.8 km     {Equator, meridian, pole}    
Output units    : AU-D                                                         
Output format   : 03
Reference frame : ICRF/J2000.0                                                 
Output type     : GEOMETRIC cartesian states
Coordinate systm: Earth Mean Equator and Equinox of Reference Epoch            
*******************************************************************************
JDCT 
   X     Y     Z
   VX    VY    VZ
   LT    RG    RR
*******************************************************************************
$$SOE
2418120.500000000 = A.D. 1908-Jun-28 00:00:00.0000 (CT)
  -1.733994131405376E-01  5.146822489949462E-01  1.869618268980823E-01
   5.556457347914883E-03 -2.308830620635016E-03 -3.365387802813302E-03
   3.317379997595643E-03  5.743865411245698E-01 -4.841686621060757E-03
2418130.500000000 = A.D. 1908-Jul-08 00:00:00.0000 (CT)
  -1.196547037460402E-01  5.393113225473571E-01  1.805443212038197E-01
   4.084430302639872E-03  7.235572500380822E-03  2.203730180548744E-03
   3.356615794920222E-03  5.811800088400152E-01  6.557995437428524E-03
2418140.500000000 = A.D. 1908-Jul-18 00:00:00.0000 (CT)
  -1.176165384123264E-01  6.552513273901810E-01  2.316259397985516E-01
  -5.202577536761897E-03  1.541016739205516E-02  7.886817964177813E-03
   4.070976542340288E-03  7.048677380489581E-01  1.778522798804382E-02
2418150.500000000 = A.D. 1908-Jul-28 00:00:00.0000 (CT)
  -2.572127208264209E-01  8.233864331930371E-01  3.289758071368445E-01
  -2.425715398091410E-02  1.604819217205138E-02  1.058892653674043E-02
   5.332116308892479E-03  9.232273196795144E-01  2.484394953647735E-02
2418160.500000000 = A.D. 1908-Aug-07 00:00:00.0000 (CT)
  -6.074262555137304E-01  9.110530694499934E-01  4.091395066348416E-01
  -4.356372709606864E-02 -2.146829489609581E-03  3.274522227543645E-03
   6.751132526663223E-03  1.168922361464220E+00  2.211063222912396E-02
2418170.500000000 = A.D. 1908-Aug-17 00:00:00.0000 (CT)
  -1.035607425431055E+00  7.495242447636759E-01  3.683068745062414E-01
  -3.705642520336071E-02 -2.863631869631052E-02 -1.114909895960594E-02
   7.683652186225146E-03  1.330383135380577E+00  9.625801639337661E-03
2418180.500000000 = A.D. 1908-Aug-27 00:00:00.0000 (CT)
  -1.294391818123791E+00  3.996864020805421E-01  2.132816659146032E-01
  -1.427718725942183E-02 -3.825445788383938E-02 -1.825890077440074E-02
   7.920441623346271E-03  1.371381955492054E+00 -5.132056994272205E-04
2418190.500000000 = A.D. 1908-Sep-06 00:00:00.0000 (CT)
  -1.334467826896556E+00  2.850104728893128E-02  2.798048070217974E-02
   5.138802515844539E-03 -3.457467927158362E-02 -1.793689475659516E-02
   7.710694638896429E-03  1.335065390914957E+00 -6.250528393192508E-03
2418200.500000000 = A.D. 1908-Sep-16 00:00:00.0000 (CT)
  -1.214683266240403E+00 -2.736978963603612E-01 -1.334784224683209E-01
   1.771569615259177E-02 -2.529782762159565E-02 -1.394223516762691E-02
   7.232513672703385E-03  1.252270923171648E+00 -1.016873399545692E-02
2418210.500000000 = A.D. 1908-Sep-26 00:00:00.0000 (CT)
  -1.001279468089336E+00 -4.696936741512254E-01 -2.446465044273640E-01
   2.391155725203910E-02 -1.364305144639538E-02 -8.051429765618224E-03
   6.541968729777412E-03  1.132706772683677E+00 -1.374083972442479E-02
2418220.500000000 = A.D. 1908-Oct-06 00:00:00.0000 (CT)
  -7.590564763719194E-01 -5.437419072557802E-01 -2.908209782589247E-01
   2.326749265020456E-02 -1.174259059975270E-03 -1.064935352313433E-03
   5.648205461392329E-03  9.779564598814130E-01 -1.708986265633421E-02
2418230.500000000 = A.D. 1908-Oct-16 00:00:00.0000 (CT)
  -5.654644448857594E-01 -4.988139863120157E-01 -2.660649620433175E-01
   1.374440191464392E-02  9.449589546480798E-03  5.804691463100196E-03
   4.618089417311189E-03  7.995973958171423E-01 -1.754630907609250E-02
2418240.500000000 = A.D. 1908-Oct-26 00:00:00.0000 (CT)
  -5.192648551443829E-01 -3.851683894013951E-01 -1.875356975942314E-01
  -5.848242398799926E-03  1.065462926787520E-02  8.627607416649899E-03
   3.887916257879596E-03  6.731718323387698E-01 -3.988616129163521E-03
2418250.500000000 = A.D. 1908-Nov-05 00:00:00.0000 (CT)
  -6.718414068249029E-01 -3.554117949737121E-01 -1.320661551624797E-01
  -2.131495566032509E-02 -7.824960926136952E-03  4.390548270006233E-04
   4.455504102126606E-03  7.714466211412820E-01  2.209273908994402E-02
2418260.500000000 = A.D. 1908-Nov-15 00:00:00.0000 (CT)
  -8.469161392293266E-01 -5.486933492618078E-01 -1.929956379622273E-01
  -9.581204913665254E-03 -2.832431286294385E-02 -1.172648571633132E-02
   5.933845938036391E-03  1.027413575286844E+00  2.522742581982759E-02
2418270.500000000 = A.D. 1908-Nov-25 00:00:00.0000 (CT)
  -8.310084364854144E-01 -8.578186378119067E-01 -3.360023043141537E-01
   1.246214240864809E-02 -3.078287702280432E-02 -1.540487759745779E-02
   7.165659747523995E-03  1.240695524853632E+00  1.710818980369226E-02
2418280.500000000 = A.D. 1908-Dec-05 00:00:00.0000 (CT)
  -6.181608615747910E-01 -1.127702047609647E+00 -4.796347880964947E-01
   2.883514564181638E-02 -2.207435277314373E-02 -1.260286332776000E-02
   7.927168300991666E-03  1.372546643622084E+00  9.553996646238516E-03
2418290.500000000 = A.D. 1908-Dec-15 00:00:00.0000 (CT)
  -2.790874307717718E-01 -1.285221087040127E+00 -5.781819229750700E-01
   3.780177712509311E-02 -9.000229493386342E-03 -6.765907489945397E-03
   8.297426853509426E-03  1.436654924692267E+00  3.431032181172619E-03
2418300.500000000 = A.D. 1908-Dec-25 00:00:00.0000 (CT)
   1.148331682202757E-01 -1.302332086041810E+00 -6.099004218089649E-01
   3.981136705099568E-02  5.716217386591384E-03  6.077956367261250E-04
   8.332041554114674E-03  1.442648274313692E+00 -2.248256055661110E-03
2418310.500000000 = A.D. 1909-Jan-04 00:00:00.0000 (CT)
   4.918167084912962E-01 -1.170970906216857E+00 -5.636057055476931E-01
   3.417163519392800E-02  2.036687174349497E-02  8.689653370570594E-03
   8.025077898449662E-03  1.389499164909232E+00 -8.593291480750997E-03
2418320.500000000 = A.D. 1909-Jan-14 00:00:00.0000 (CT)
   7.656453580379039E-01 -9.056212577913313E-01 -4.385294060559116E-01
   1.875337391369716E-02  3.162939244880569E-02  1.593725230578703E-02
   7.302481688556143E-03  1.264385509575420E+00 -1.682617375380690E-02
2418330.500000000 = A.D. 1909-Jan-24 00:00:00.0000 (CT)
   8.329649747487603E-01 -5.792992863654619E-01 -2.632917978067124E-01
  -6.155061800594661E-03  3.040586244252178E-02  1.747181296068310E-02
   6.053946921115546E-03  1.048208415885900E+00 -2.608377298119853E-02
2418340.500000000 = A.D. 1909-Feb-03 00:00:00.0000 (CT)
   6.739357141105782E-01 -3.697263228016166E-01 -1.309732298644264E-01
  -2.122957071108835E-02  9.181365217046506E-03  7.288013593641856E-03
   4.503574575980052E-03  7.797697656791138E-01 -2.392564292466828E-02
2418350.500000000 = A.D. 1909-Feb-13 00:00:00.0000 (CT)
   5.054031359180915E-01 -3.807517175688621E-01 -1.196663827857809E-01
  -9.384510584913673E-03 -8.386224711988773E-03 -3.745868731023090E-03
   3.719381087308653E-03  6.439908721375734E-01 -1.710640789946629E-03
2418360.500000000 = A.D. 1909-Feb-23 00:00:00.0000 (CT)
   5.018299620250812E-01 -4.777635637352199E-01 -1.756095620608807E-01
   7.978864858202695E-03 -8.797924180413015E-03 -6.183424879605160E-03
   4.128304191665735E-03  7.147937128334905E-01  1.300127495107131E-02
2418370.500000000 = A.D. 1909-Mar-05 00:00:00.0000 (CT)
   6.427181438321160E-01 -5.285219511765802E-01 -2.258828930046980E-01
   1.898870979666854E-02 -5.372420521609249E-04 -3.304534267074582E-03
   4.979840489142606E-03  8.622326522689058E-01  1.534941904298951E-02
2418380.500000000 = A.D. 1909-Mar-15 00:00:00.0000 (CT)
   8.586038458704195E-01 -4.787963996768393E-01 -2.340131084918624E-01
   2.310017141878300E-02  1.074509849731027E-02  1.938220503991974E-03
   5.836442588414158E-03  1.010548708095262E+00  1.408701275517743E-02
2418390.500000000 = A.D. 1909-Mar-25 00:00:00.0000 (CT)
   1.083245266908782E+00 -3.111424214453352E-01 -1.834146503709725E-01
   2.072481006615437E-02  2.278718044476574E-02  8.305626837558118E-03
   6.594900605248425E-03  1.141871642818864E+00  1.211749179931376E-02
2418400.500000000 = A.D. 1909-Apr-04 00:00:00.0000 (CT)
   1.248831497792038E+00 -2.590209652618714E-02 -6.671554258747350E-02
   1.100413117615184E-02  3.391037556313464E-02  1.500068227451020E-02
   7.224483181598618E-03  1.250880486739120E+00  9.483861380984266E-03
2418410.500000000 = A.D. 1909-Apr-14 00:00:00.0000 (CT)
   1.271095900497577E+00  3.515264378507132E-01  1.118456515716721E-01
  -8.315522322384214E-03  4.012532911339497E-02  2.013085781781601E-02
   7.644144680805669E-03  1.323542622866846E+00  4.372232888984255E-03
2418420.500000000 = A.D. 1909-Apr-24 00:00:00.0000 (CT)
   1.056056902472751E+00  7.256933805751223E-01  3.116850005001451E-01
  -3.464710990822254E-02  3.105014020509058E-02  1.789046251659160E-02
   7.616318173160655E-03  1.318724612422043E+00 -6.430644774681035E-03
